BEIDOU-2 G8             
1 44231U 19027A   26171.27807626 -.00000252  00000+0  00000+0 0  9996
2 44231   1.6670  74.5134 0010135 282.0624 156.5506  1.00269887 26113
COSMOS 2534 [GLONASS-M] 
1 44299U 19030A   26171.05337719  .00000060  00000+0  00000+0 0  9997
2 44299  64.3685 192.5201 0013482 275.0513 262.9121  2.13102287 54988
BEIDOU-3 IGSO-2         
1 44337U 19035A   26171.00863270 -.00000089  00000+0  00000+0 0  9998
2 44337  55.2483 158.8374 0039469 216.1326  15.9665  1.00265164 25697
NAVSTAR 78 (USA 293)    
1 44506U 19056A   26170.88008800 -.00000092  00000+0  00000+0 0  9998
2 44506  55.6357 331.0347 0062144 197.6254 334.2547  2.00569711 50121
BEIDOU-3 M24            
1 44542U 19061A   26169.85330200  .00000056  00000+0  00000+0 0  9990
2 44542  54.3963 182.6715 0008348 358.6027   1.4189  1.86229057 45827
BEIDOU-3 M23            
1 44543U 19061B   26171.17384045  .00000066  00000+0  00000+0 0  9996
2 44543  54.3949 182.5950 0005754 338.0602  98.8908  1.86227398 45859
EUTELSAT 5 WEST B       
1 44624U 19067A   26171.24841683 -.00000047  00000+0  00000+0 0  9996
2 44624   0.0624 351.8348 0003100  97.2540 263.8155  1.00270202 24467
BEIDOU-3 M22            
1 44793U 19078A   26170.76709439 -.00000086  00000+0  00000+0 0  9996
2 44793  53.9333 299.7372 0006294  50.9826 309.0706  1.86227050 44694
BEIDOU-3 M21            
1 44794U 19078B   26169.29611751 -.00000076  00000+0  00000+0 0  9991
2 44794  53.9076 299.7502 0004064  49.2520 310.7784  1.86227678 44678
COSMOS 2544 [GLONASS-M] 
1 44850U 19088A   26169.43716075 -.00000023  00000+0  00000+0 0  9998
2 44850  65.5663  73.6893 0013127 258.8621 101.0278  2.13102753 50745
BEIDOU-3 M19            
1 44864U 19090A   26170.32723203 -.00000063  00000+0  00000+0 0  9991
2 44864  56.5606  62.7196 0017807 298.1010 230.5750  1.86231227 44272
BEIDOU-3 M20            
1 44865U 19090B   26171.17437432 -.00000071  00000+0  00000+0 0  9991
2 44865  56.5632  62.7263 0015528 312.5964 153.6305  1.86231200 44276
BEIDOU-3 G2             
1 45344U 20017A   26171.12273016 -.00000147  00000+0  00000+0 0  9990
2 45344   2.8711  47.4075 0002078  33.3317 311.8622  1.00271684 23282
COSMOS 2545 [GLONASS-M] 
1 45358U 20018A   26171.03993207 -.00000062  00000+0  00000+0 0  9993
2 45358  64.3533 312.3188 0008498 229.8711 130.0473  2.13102302 48729
BEIDOU-3 G3             
1 45807U 20040A   26171.05745054 -.00000359  00000+0  00000+0 0  9993
2 45807   2.4554  67.4599 0002377 337.1315 354.8002  1.00264935 22093
NAVSTAR 79 (USA 304)    
1 45854U 20041A   26170.72346014 -.00000092  00000+0  00000+0 0  9996
2 45854  56.6713  28.8441 0064001 204.6185 152.4669  2.00558579 44080
GALAXY 30 (G-30)        
1 46114U 20056C   26171.22469549  .00000032  00000+0  00000+0 0  9990
2 46114   0.0184  12.1500 0002276  75.6010 136.5751  1.00273017 21323
COSMOS 2547 [GLONASS-K] 
1 46805U 20075A   26170.29095409  .00000057  00000+0  00000+0 0  9991
2 46805  64.5997 192.4053 0009333 239.7748 120.1782  2.13100021 43959
NAVSTAR 80 (USA 309)    
1 46826U 20078A   26171.27904749  .00000028  00000+0  00000+0 0  9990
2 46826  53.9792 210.6529 0073633 207.3587 167.3205  2.00564914 41574
NAVSTAR 81 (USA 319)    
1 48859U 21054A   26171.00487014 -.00000094  00000+0  00000+0 0  9999
2 48859  55.1728 332.3454 0025356 228.5950 134.3763  2.00568793 36815
QZS-1R (MICHIBIKI-1R)   
1 49336U 21096A   26170.63258758 -.00000290  00000+0  00000+0 0  9993
2 49336  37.4674  79.5460 0754800 271.8525 278.0167  1.00254705 17039
GSAT0223 (GALILEO 27)   
1 49809U 21116A   26171.21352742 -.00000095  00000+0  00000+0 0  9997
2 49809  57.1598 341.5920 0001560 185.4323 351.7235  1.70476002 28237
GSAT0224 (GALILEO 28)   
1 49810U 21116B   26168.98509303 -.00000091  00000+0  00000+0 0  9992
2 49810  57.1613 341.6514 0001177 159.9709 202.1698  1.70475877 28225
COSMOS 2557 [GLONASS-K] 
1 52984U 22075A   26170.92450556 -.00000062  00000+0  00000+0 0  9993
2 52984  64.2972 314.3888 0010265 274.4037  85.4711  2.13102003 30771
COSMOS 2559 [GLONASS-K] 
1 54031U 22130A   26169.33634979 -.00000058  00000+0  00000+0 0  9991
2 54031  64.2705 314.5280 0012585 178.2040 181.7898  2.13101593 28710
COSMOS 2564 [GLONASS-M] 
1 54377U 22161A   26171.05664634  .00000061  00000+0  00000+0 0  9994
2 54377  64.7420 192.6165 0012215 224.8634 135.0824  2.13102033 27693
NAVSTAR 82 (USA 343)    
1 55268U 23009A   26170.94526515  .00000063  00000+0  00000+0 0  9990
2 55268  55.1232 148.4103 0006177 317.2306  41.0383  2.00571329 25296
BEIDOU-3 G4             
1 56564U 23066A   26171.20572738 -.00000286  00000+0  00000+0 0  9999
2 56564   0.4829 332.3339 0004438 178.8707 331.3241  1.00272903 11423
NVS-01 (IRNSS-1J)       
1 56759U 23076A   26171.27504292 -.00000340  00000+0  00000+0 0  9994
2 56759   2.1578 244.1945 0003075  18.2111 234.5311  1.00277431 11146
COSMOS 2569 [GLONASS-K2]
1 57517U 23114A   26171.06898642 -.00000038  00000+0  00000+0 0  9996
2 57517  65.3037  72.5232 0010558 297.0134  62.9169  2.13103727 22325
BEIDOU-3 M28            
1 58654U 23207A   26170.98407190 -.00000071  00000+0  00000+0 0  9993
2 58654  55.7552  62.2085 0003174 349.4028  10.6308  1.86229736 16893
