OBJECT_NAME,OBJECT_ID,EPOCH,MEAN_MOTION,ECCENTRICITY,INCLINATION,RA_OF_ASC_NODE,ARG_OF_PERICENTER,MEAN_ANOMALY,EPHEMERIS_TYPE,CLASSIFICATION_TYPE,NORAD_CAT_ID,ELEMENT_SET_NO,REV_AT_EPOCH,BSTAR,MEAN_MOTION_DOT,MEAN_MOTION_DDOT
BEIDOU-2 G8 (C01),2019-027A,2026-06-20T06:40:25.788864,1.00269887,.00101358,1.6670,74.5134,282.0624,156.5506,0,U,44231,999,2611,0,-.252E-5,0
COSMOS 2534 (758),2019-030A,2026-06-20T01:16:51.789216,2.13102287,.00134824,64.3685,192.5201,275.0513,262.9121,0,U,44299,999,5498,0,.6E-6,0
BEIDOU-3 IGSO-2 (C39),2019-035A,2026-06-20T00:12:25.865280,1.00265164,.00394695,55.2483,158.8374,216.1326,15.9665,0,U,44337,999,2569,0,-.89E-6,0
GPS BIII-2  (PRN 18),2019-056A,2026-06-19T21:07:19.603200,2.00569711,.00621448,55.6357,331.0347,197.6254,334.2547,0,U,44506,999,5012,0,-.92E-6,0
BEIDOU-3 M24 (C46),2019-061A,2026-06-18T20:28:45.292800,1.86229057,.00083489,54.3963,182.6715,358.6027,1.4189,0,U,44542,999,4582,0,.56E-6,0
BEIDOU-3 M23 (C45),2019-061B,2026-06-20T04:10:19.814880,1.86227398,.00057543,54.3949,182.5950,338.0602,98.8908,0,U,44543,999,4585,0,.66E-6,0
EUTELSAT 5 WEST B (EGNOS/PRN 121),2019-067A,2026-06-20T05:57:43.214112,1.00270202,.00031005,0.0624,351.8348,97.2540,263.8155,0,U,44624,999,2446,0,-.47E-6,0
BEIDOU-3 M22 (C44),2019-078A,2026-06-19T18:24:36.955296,1.86227050,.00062942,53.9333,299.7372,50.9826,309.0706,0,U,44793,999,4469,0,-.86E-6,0
BEIDOU-3 M21 (C43),2019-078B,2026-06-18T07:06:24.552864,1.86227678,.0004064,53.9076,299.7502,49.2520,310.7784,0,U,44794,999,4467,0,-.76E-6,0
COSMOS 2544 (759),2019-088A,2026-06-18T10:29:30.688800,2.13102753,.00131277,65.5663,73.6893,258.8621,101.0278,0,U,44850,999,5074,0,-.23E-6,0
BEIDOU-3 M19 (C41),2019-090A,2026-06-19T07:51:12.847392,1.86231227,.00178079,56.5606,62.7196,298.1010,230.5750,0,U,44864,999,4427,0,-.63E-6,0
BEIDOU-3 M20 (C42),2019-090B,2026-06-20T04:11:05.941248,1.86231200,.00155284,56.5632,62.7263,312.5964,153.6305,0,U,44865,999,4427,0,-.71E-6,0
BEIDOU-3 G2 (C60),2020-017A,2026-06-20T02:56:43.885824,1.00271684,.00020786,2.8711,47.4075,33.3317,311.8622,0,U,45344,999,2328,0,-.147E-5,0
COSMOS 2545 (760),2020-018A,2026-06-20T00:57:30.130848,2.13102302,.00084989,64.3533,312.3188,229.8711,130.0473,0,U,45358,999,4872,0,-.62E-6,0
BEIDOU-3 G3 (C61),2020-040A,2026-06-20T01:22:43.726656,1.00264935,.00023773,2.4554,67.4599,337.1315,354.8002,0,U,45807,999,2209,0,-.359E-5,0
GPS BIII-3  (PRN 23),2020-041A,2026-06-19T17:21:46.956096,2.00558579,.00640019,56.6713,28.8441,204.6185,152.4669,0,U,45854,999,4408,0,-.92E-6,0
GALAXY 30 (WAAS/PRN 135),2020-056C,2026-06-20T05:23:33.690336,1.00273017,.00022767,0.0184,12.1500,75.6010,136.5751,0,U,46114,999,2132,0,.32E-6,0
COSMOS 2547 (705K),2020-075A,2026-06-19T06:58:58.433376,2.13100021,.00093332,64.5997,192.4053,239.7748,120.1782,0,U,46805,999,4395,0,.57E-6,0
GPS BIII-4  (PRN 14),2020-078A,2026-06-20T06:41:49.703136,2.00564914,.00736339,53.9792,210.6529,207.3587,167.3205,0,U,46826,999,4157,0,.28E-6,0
GPS BIII-5  (PRN 11),2021-054A,2026-06-20T00:07:00.780096,2.00568793,.00253561,55.1728,332.3454,228.5950,134.3763,0,U,48859,999,3681,0,-.94E-6,0
QZS-1R (QZSS/PRN 196),2021-096A,2026-06-19T15:10:55.566912,1.00254705,.07548004,37.4674,79.5460,271.8525,278.0167,0,U,49336,999,1703,0,-.29E-5,0
GSAT0223 (GALILEO 27),2021-116A,2026-06-20T05:07:28.769088,1.70476002,.000156,57.1598,341.5920,185.4323,351.7235,0,U,49809,999,2823,0,-.95E-6,0
GSAT0224 (GALILEO 28),2021-116B,2026-06-17T23:38:32.037792,1.70475877,.0001177,57.1613,341.6514,159.9709,202.1698,0,U,49810,999,2822,0,-.91E-6,0
COSMOS 2557 (706K),2022-075A,2026-06-19T22:11:17.280384,2.13102003,.00102657,64.2972,314.3888,274.4037,85.4711,0,U,52984,999,3077,0,-.62E-6,0
COSMOS 2559 (707K),2022-130A,2026-06-18T08:04:20.621856,2.13101593,.0012585,64.2705,314.5280,178.2040,181.7898,0,U,54031,999,2871,0,-.58E-6,0
COSMOS 2564 (761),2022-161A,2026-06-20T01:21:34.243776,2.13102033,.0012215,64.7420,192.6165,224.8634,135.0824,0,U,54377,999,2769,0,.61E-6,0
GPS BIII-6  (PRN 28),2023-009A,2026-06-19T22:41:10.908960,2.00571329,.00061771,55.1232,148.4103,317.2306,41.0383,0,U,55268,999,2529,0,.63E-6,0
BEIDOU-3 G4 (C62),2023-066A,2026-06-20T04:56:14.845632,1.00272903,.00044386,0.4829,332.3339,178.8707,331.3241,0,U,56564,999,1142,0,-.286E-5,0
NVS-01 (IRNSS-1J),2023-076A,2026-06-20T06:36:03.708288,1.00277431,.0003075,2.1578,244.1945,18.2111,234.5311,0,U,56759,999,1114,0,-.34E-5,0
COSMOS 2569 (703K),2023-114A,2026-06-20T01:39:20.426688,2.13103727,.00105586,65.3037,72.5232,297.0134,62.9169,0,U,57517,999,2232,0,-.38E-6,0
BEIDOU-3 M28 (C50),2023-207A,2026-06-19T23:37:03.812160,1.86229736,.00031745,55.7552,62.2085,349.4028,10.6308,0,U,58654,999,1689,0,-.71E-6,0
